OBJECT_NAME,OBJECT_ID,EPOCH,MEAN_MOTION,ECCENTRICITY,INCLINATION,RA_OF_ASC_NODE,ARG_OF_PERICENTER,MEAN_ANOMALY,EPHEMERIS_TYPE,CLASSIFICATION_TYPE,NORAD_CAT_ID,ELEMENT_SET_NO,REV_AT_EPOCH,BSTAR,MEAN_MOTION_DOT,MEAN_MOTION_DDOT
LEMUR-2-FINNIAN,2025-276DX,2026-06-08T17:50:41.392032,15.00271962,.00085774,97.5259,231.0053,114.2544,245.9577,0,U,66782,999,1873,.57463684E-3,.7148E-4,0
LEMUR-2-STARLIGHT,2025-276DY,2026-06-08T03:48:02.107872,14.98948334,.00153528,97.5274,230.1048,153.7795,206.4209,0,U,66783,999,2884,.45215688E-3,.5428E-4,0
LEMUR-2-TARTIFLETTE,2025-276DZ,2026-06-09T10:12:28.389312,14.98988047,.0013974,97.5280,231.3342,156.1665,204.0208,0,U,66784,999,2903,.49109E-3,.5905E-4,0
LEMUR-2-VUKASIN,2025-276EA,2026-06-09T10:12:58.885920,15.00281153,.0006284,97.5310,231.6124,142.5144,217.6520,0,U,66785,999,2898,.43855E-3,.544E-4,0
LEMUR-2-HOTSPUR-TOM,2025-276EB,2026-06-09T03:36:22.038912,14.98860681,.00153592,97.5255,231.0522,152.0796,208.1254,0,U,66786,999,2892,.52222614E-3,.6265E-4,0
LEMUR-2-MYRA,2025-276EC,2026-06-09T10:57:17.508096,15.00138577,.0015666,97.5220,231.5921,167.1469,193.0158,0,U,66787,999,2905,.47734E-3,.5916E-4,0
LEMUR-2 FIKRETDENGIZ,2026-004A,2026-06-08T23:58:51.485664,14.88265150,.00094199,97.8015,158.6834,156.8879,203.2764,0,U,67363,999,2206,.38446876E-3,.35E-4,0
TWILIGHT-1 OBJECT B,2026-004B,2026-06-09T05:19:49.841760,14.87675373,.0009444,97.8059,158.9215,147.3595,212.8206,0,U,67364,999,2210,.19791E-3,.1749E-4,0
LEMUR-2-MARIO-SOUSA,2026-004C,2026-06-09T06:03:57.299328,14.88449517,.0008997,97.7991,158.9296,156.7218,203.4408,0,U,67365,999,2211,.37929E-3,.3468E-4,0
LEMUR-2-SONNENBLUME,2026-004E,2026-06-09T06:00:12.286080,14.88275023,.0008536,97.7984,158.9145,158.3621,201.7958,0,U,67367,999,2211,.24046E-3,.2168E-4,0
LEMUR-2-WOBLER,2026-004F,2026-06-09T05:52:19.254720,14.88462871,.0008956,97.8039,159.0235,148.1642,212.0118,0,U,67368,999,2211,.32579E-3,.2972E-4,0
LEMUR-2-GRAM-E-SUE,2026-004H,2026-06-09T10:28:59.234016,14.88436807,.000754,97.7973,159.1128,158.0346,202.1195,0,U,67370,999,2214,.20155E-3,.1816E-4,0
LEMUR-2-KATIE,2026-004AA,2026-06-09T05:32:18.476160,14.89999040,.0004739,97.8037,159.3436,109.1895,250.9836,0,U,67387,999,2212,.39038E-3,.371E-4,0
LEMUR-2-HCS-BAZUS,2026-004AB,2026-06-08T18:14:05.995968,14.89994072,.00043543,97.8026,158.8607,105.5742,254.5957,0,U,67388,999,2205,.57516688E-3,.5493E-4,0
